NOAA 1 [-]              
1 04793U 70106A   22317.19140653 -.00000031  00000+0  79756-4 0  9993
2 04793 101.5386  17.1513 0031611  33.4112  32.9127 12.54008998376234
NOAA 2 (ITOS-D) [-]     
1 06235U 72082A   22317.52087615 -.00000034  00000+0  74307-4 0  9996
2 06235 101.9715 300.7725 0004027 146.1932 323.8610 12.53153723290641
NOAA 3 [-]              
1 06920U 73086A   22317.53043039 -.00000039  00000+0  54641-4 0  9999
2 06920 102.2261 299.5975 0006779  16.6742  99.1747 12.40350132219273
NOAA 4 [-]              
1 07529U 74089A   22317.57964439 -.00000032  00000+0  90833-4 0  9995
2 07529 101.9330 297.7489 0008808 177.3178 295.2041 12.53162345195220
NOAA 5 [-]              
1 09057U 76077A   22317.52892153 -.00000022  00000+0  17561-3 0  9995
2 09057 102.1216 284.0333 0009415 224.8921 251.6248 12.37776280 92187
TIROS N [-]             
1 11060U 78096A   22317.11845738  .00000161  00000+0  98551-4 0  9999
2 11060  98.6168   6.7872 0011606  77.5479 282.6995 14.18437422492687
NOAA 6 [-]              
1 11416U 79057A   22317.53319608  .00000275  00000+0  11469-3 0  9998
2 11416  98.6622 328.6181 0010438 172.9285 187.2049 14.33835617262885
NOAA 7 [-]              
1 12553U 81059A   22317.53678033  .00000075  00000+0  59713-4 0  9999
2 12553  98.9805   3.6708 0012278  55.1692 305.0635 14.17355285138914
NOAA 8 [-]              
1 13923U 83022A   22317.51444279  .00000150  00000+0  76823-4 0  9999
2 13923  98.6997 307.5706 0015853 130.8686 229.3872 14.28855041 63695
NOAA 9 [-]              
1 15427U 84123A   22317.53167260  .00000135  00000+0  91139-4 0  9997
2 15427  99.0657 292.3927 0015781 102.0671   7.1170 14.16244616957710
NOAA 10 [-]             
1 16969U 86073A   22317.54319951  .00000138  00000+0  72777-4 0  9992
2 16969  98.5838 301.0634 0011245 233.1129 236.2614 14.28243946882112
NOAA 11 [-]             
1 19531U 88089A   22317.50971882  .00000053  00000+0  48329-4 0  9994
2 19531  98.4407 298.5118 0012235 107.3281 252.9233 14.15333932761905
NOAA 12 [-]             
1 21263U 91032A   22317.52442687  .00000087  00000+0  54234-4 0  9998
2 21263  98.5222 313.2249 0012478 262.8484  97.1278 14.26027866637972
NOAA 13 [-]             
1 22739U 93050A   22317.51898331  .00000137  00000+0  95708-4 0  9996
2 22739  98.5247 290.0170 0008427 278.6261  81.3957 14.12881078508109
NOAA 14 [-]             
1 23455U 94089A   22317.55630680  .00000041  00000+0  43024-4 0  9998
2 23455  98.4384 336.1352 0008378 253.9320 106.0931 14.14219286437787
NOAA 15 [B]             
1 25338U 98030A   22317.50539289  .00000168  00000+0  88426-4 0  9993
2 25338  98.6308 345.0031 0009726 218.2867 141.7624 14.26195728274262
NOAA 16 [-]             
1 26536U 00055A   22317.56027439  .00000075  00000+0  62385-4 0  9992
2 26536  98.6176  11.1826 0011593  99.5820 260.6664 14.13358409438410
NOAA 17 [-]             
1 27453U 02032A   22317.55524585  .00000182  00000+0  96115-4 0  9998
2 27453  98.6888 261.1764 0011413 193.3910 166.6968 14.25165373 60097
NOAA 18 [B]             
1 28654U 05018A   22317.49941705  .00000186  00000+0  12419-3 0  9997
2 28654  98.9351  27.7141 0013280 269.8042  90.1608 14.12806376901023
NOAA 19 [+]             
1 33591U 09005A   22317.44695685  .00000176  00000+0  12001-3 0  9997
2 33591  99.1318 354.6056 0014677 127.6847 232.5657 14.12637125709483
SUOMI NPP [+]           
1 37849U 11061A   22317.57947707  .00000098  00000+0  67357-4 0  9999
2 37849  98.7461 254.1332 0000997  88.9872  85.2904 14.19560509572355
NOAA 20 [+]             
1 43013U 17073A   22317.43895019  .00000112  00000+0  73949-4 0  9992
2 43013  98.7299 253.7303 0001198  56.7828 303.3463 14.19558942258369
